{
  "type": "FeatureCollection",
  "features": [
    {
      "type": "Feature",
      "properties": {
        "norad_id": 57400,
        "name": "TIANMU-1 08",
        "group": "weather",
        "lat": -17.16402207612483,
        "lon": -132.1220146204458,
        "alt_km": 490.27790308180465,
        "timestamp": "2025-12-26T19:22:38.537287+00:00",
        "meta_object_name": "TIANMU-1 08",
        "meta_object_id": "2023-101B",
        "meta_epoch": "2025-12-26T13:48:11.722752",
        "meta_mean_motion": 15.28249667,
        "meta_eccentricity": 0.00068461,
        "meta_inclination": 97.2846,
        "meta_ra_of_asc_node": 49.9152,
        "meta_arg_of_pericenter": 44.3282,
        "meta_mean_anomaly": 315.8505,
        "meta_ephemeris_type": 0,
        "meta_classification_type": "U",
        "meta_norad_cat_id": 57400,
        "meta_element_set_no": 999,
        "meta_rev_at_epoch": 13526,
        "meta_bstar": 0.00027123306,
        "meta_mean_motion_dot": 7.398e-05,
        "meta_mean_motion_ddot": 0,
        "tle_line1": "1 57400U 23101B   25360.57513568  .00007398  00000+0  27123-3 0  9993",
        "tle_line2": "2 57400  97.2846  49.9152 0006846  44.3282 315.8505 15.28249667135265"
      },
      "geometry": {
        "type": "Point",
        "coordinates": [
          -132.1220146204458,
          -17.16402207612483
        ]
      }
    },
    {
      "type": "Feature",
      "properties": {
        "norad_id": 57401,
        "name": "TIANMU-1 09",
        "group": "weather",
        "lat": -82.58182002764626,
        "lon": 128.73030640675174,
        "alt_km": 491.17931614379813,
        "timestamp": "2025-12-26T19:22:38.537300+00:00",
        "meta_object_name": "TIANMU-1 09",
        "meta_object_id": "2023-101C",
        "meta_epoch": "2025-12-26T15:03:01.556640",
        "meta_mean_motion": 15.2828744,
        "meta_eccentricity": 0.00061107,
        "meta_inclination": 97.2803,
        "meta_ra_of_asc_node": 49.4721,
        "meta_arg_of_pericenter": 45.4914,
        "meta_mean_anomaly": 314.6824,
        "meta_ephemeris_type": 0,
        "meta_classification_type": "U",
        "meta_norad_cat_id": 57401,
        "meta_element_set_no": 999,
        "meta_rev_at_epoch": 13527,
        "meta_bstar": 0.00029821077,
        "meta_mean_motion_dot": 8.15e-05,
        "meta_mean_motion_ddot": 0,
        "tle_line1": "1 57401U 23101C   25360.62710135  .00008150  00000+0  29821-3 0  9993",
        "tle_line2": "2 57401  97.2803  49.4721 0006110  45.4914 314.6824 15.28287440135277"
      },
      "geometry": {
        "type": "Point",
        "coordinates": [
          128.73030640675174,
          -82.58182002764626
        ]
      }
    },
    {
      "type": "Feature",
      "properties": {
        "norad_id": 57402,
        "name": "TIANMU-1 10",
        "group": "weather",
        "lat": 79.90947085201792,
        "lon": 4.524954485727339,
        "alt_km": 469.53304822676273,
        "timestamp": "2025-12-26T19:22:38.537310+00:00",
        "meta_object_name": "TIANMU-1 10",
        "meta_object_id": "2023-101D",
        "meta_epoch": "2025-12-26T14:18:06.573024",
        "meta_mean_motion": 15.28278722,
        "meta_eccentricity": 0.00078333,
        "meta_inclination": 97.2883,
        "meta_ra_of_asc_node": 50.306,
        "meta_arg_of_pericenter": 42.6013,
        "meta_mean_anomaly": 317.5834,
        "meta_ephemeris_type": 0,
        "meta_classification_type": "U",
        "meta_norad_cat_id": 57402,
        "meta_element_set_no": 999,
        "meta_rev_at_epoch": 13526,
        "meta_bstar": 0.0002780445,
        "meta_mean_motion_dot": 7.594e-05,
        "meta_mean_motion_ddot": 0,
        "tle_line1": "1 57402U 23101D   25360.59590941  .00007594  00000+0  27804-3 0  9991",
        "tle_line2": "2 57402  97.2883  50.3060 0007833  42.6013 317.5834 15.28278722135260"
      },
      "geometry": {
        "type": "Point",
        "coordinates": [
          4.524954485727339,
          79.90947085201792
        ]
      }
    },
    {
      "type": "Feature",
      "properties": {
        "norad_id": 57490,
        "name": "FENGYUN 3F",
        "group": "weather",
        "lat": -81.12405189254588,
        "lon": 169.99009133300896,
        "alt_km": 833.5729697870438,
        "timestamp": "2025-12-26T19:22:38.537322+00:00",
        "meta_object_name": "FENGYUN 3F",
        "meta_object_id": "2023-111A",
        "meta_epoch": "2025-12-26T14:44:06.614880",
        "meta_mean_motion": 14.19897205,
        "meta_eccentricity": 8.614e-05,
        "meta_inclination": 98.7065,
        "meta_ra_of_asc_node": 68.6824,
        "meta_arg_of_pericenter": 117.8701,
        "meta_mean_anomaly": 242.2563,
        "meta_ephemeris_type": 0,
        "meta_classification_type": "U",
        "meta_norad_cat_id": 57490,
        "meta_element_set_no": 999,
        "meta_rev_at_epoch": 12437,
        "meta_bstar": 5.6989476e-05,
        "meta_mean_motion_dot": 7.7e-07,
        "meta_mean_motion_ddot": 0,
        "tle_line1": "1 57490U 23111A   25360.61396545  .00000077  00000+0  56989-4 0  9992",
        "tle_line2": "2 57490  98.7065  68.6824 0000861 117.8701 242.2563 14.19897205124373"
      },
      "geometry": {
        "type": "Point",
        "coordinates": [
          169.99009133300896,
          -81.12405189254588
        ]
      }
    },
    {
      "type": "Feature",
      "properties": {
        "norad_id": 58584,
        "name": "ARKTIKA-M 2",
        "group": "weather",
        "lat": 23.296012311299478,
        "lon": -174.09000495192285,
        "alt_km": 14430.621453248827,
        "timestamp": "2025-12-26T19:22:38.537334+00:00",
        "meta_object_name": "ARKTIKA-M 2",
        "meta_object_id": "2023-198A",
        "meta_epoch": "2025-12-25T18:56:09.299328",
        "meta_mean_motion": 2.00602256,
        "meta_eccentricity": 0.686608,
        "meta_inclination": 63.2255,
        "meta_ra_of_asc_node": 173.4714,
        "meta_arg_of_pericenter": 268.0516,
        "meta_mean_anomaly": 18.8422,
        "meta_ephemeris_type": 0,
        "meta_classification_type": "U",
        "meta_norad_cat_id": 58584,
        "meta_element_set_no": 999,
        "meta_rev_at_epoch": 1484,
        "meta_bstar": 0,
        "meta_mean_motion_dot": 2.31e-06,
        "meta_mean_motion_ddot": 0,
        "tle_line1": "1 58584U 23198A   25359.78899652  .00000231  00000+0  00000+0 0  9995",
        "tle_line2": "2 58584  63.2255 173.4714 6866080 268.0516  18.8422  2.00602256 14849"
      },
      "geometry": {
        "type": "Point",
        "coordinates": [
          -174.09000495192285,
          23.296012311299478
        ]
      }
    },
    {
      "type": "Feature",
      "properties": {
        "norad_id": 58645,
        "name": "TIANMU-1 11",
        "group": "weather",
        "lat": 81.35255579937416,
        "lon": -38.01906642739653,
        "alt_km": 489.0767427884675,
        "timestamp": "2025-12-26T19:22:38.537347+00:00",
        "meta_object_name": "TIANMU-1 11",
        "meta_object_id": "2023-205A",
        "meta_epoch": "2025-12-26T14:16:42.512736",
        "meta_mean_motion": 15.24766803,
        "meta_eccentricity": 0.00075835,
        "meta_inclination": 97.36,
        "meta_ra_of_asc_node": 19.9749,
        "meta_arg_of_pericenter": 250.9389,
        "meta_mean_anomaly": 109.1027,
        "meta_ephemeris_type": 0,
        "meta_classification_type": "U",
        "meta_norad_cat_id": 58645,
        "meta_element_set_no": 999,
        "meta_rev_at_epoch": 11120,
        "meta_bstar": 0.00027575166,
        "meta_mean_motion_dot": 6.768e-05,
        "meta_mean_motion_ddot": 0,
        "tle_line1": "1 58645U 23205A   25360.59493649  .00006768  00000+0  27575-3 0  9990",
        "tle_line2": "2 58645  97.3600  19.9749 0007583 250.9389 109.1027 15.24766803111200"
      },
      "geometry": {
        "type": "Point",
        "coordinates": [
          -38.01906642739653,
          81.35255579937416
        ]
      }
    },
    {
      "type": "Feature",
      "properties": {
        "norad_id": 58646,
        "name": "TIANMU-1 12",
        "group": "weather",
        "lat": -66.95624528336934,
        "lon": 37.6714250883593,
        "alt_km": 497.2604442441734,
        "timestamp": "2025-12-26T19:22:38.537359+00:00",
        "meta_object_name": "TIANMU-1 12",
        "meta_object_id": "2023-205B",
        "meta_epoch": "2025-12-26T14:57:01.087200",
        "meta_mean_motion": 15.24654046,
        "meta_eccentricity": 0.00060919,
        "meta_inclination": 97.3588,
        "meta_ra_of_asc_node": 19.8032,
        "meta_arg_of_pericenter": 228.5191,
        "meta_mean_anomaly": 131.5524,
        "meta_ephemeris_type": 0,
        "meta_classification_type": "U",
        "meta_norad_cat_id": 58646,
        "meta_element_set_no": 999,
        "meta_rev_at_epoch": 11119,
        "meta_bstar": 0.00027563857,
        "meta_mean_motion_dot": 6.74e-05,
        "meta_mean_motion_ddot": 0,
        "tle_line1": "1 58646U 23205B   25360.62292925  .00006740  00000+0  27564-3 0  9997",
        "tle_line2": "2 58646  97.3588  19.8032 0006091 228.5191 131.5524 15.24654046111199"
      },
      "geometry": {
        "type": "Point",
        "coordinates": [
          37.6714250883593,
          -66.95624528336934
        ]
      }
    }
  ]
}